[Satellite]
VERSION=1.1
NAME=CZ-6A DEB
NICKNAME=CZ-6A DEB
TLE1=1 54620U 22151NX  22334.84264735  .03472442  62134-2  16597-1 0  9994
TLE2=2 54620  99.1579 345.5698 0193643 211.2922 147.6690 15.61270808  1523
STATUS=0
